[{"OBJECT_NAME":"JILIN-1 GAOFEN 03D47","OBJECT_ID":"2022-167L","EPOCH":"2026-03-09T22:56:46.924224","MEAN_MOTION":15.31686941,"ECCENTRICITY":0.00089304,"INCLINATION":97.6835,"RA_OF_ASC_NODE":234.6581,"ARG_OF_PERICENTER":110.4031,"MEAN_ANOMALY":249.8169,"EPHEMERIS_TYPE":0,"CLASSIFICATION_TYPE":"U","NORAD_CAT_ID":54692,"ELEMENT_SET_NO":999,"REV_AT_EPOCH":18014,"BSTAR":0.00047294748,"MEAN_MOTION_DOT":0.00014417,"MEAN_MOTION_DDOT":0},{"OBJECT_NAME":"STARLINK-32310","OBJECT_ID":"2024-193B","EPOCH":"2026-03-09T11:19:14.073888","MEAN_MOTION":15.30197149,"ECCENTRICITY":0.00012797,"INCLINATION":53.1606,"RA_OF_ASC_NODE":91.99,"ARG_OF_PERICENTER":86.2735,"MEAN_ANOMALY":273.8412,"EPHEMERIS_TYPE":0,"CLASSIFICATION_TYPE":"U","NORAD_CAT_ID":61662,"ELEMENT_SET_NO":999,"REV_AT_EPOCH":7649,"BSTAR":4.203526e-5,"MEAN_MOTION_DOT":8.86e-6,"MEAN_MOTION_DDOT":0}]
